[{"OBJECT_NAME":"SHIJIAN-6 03B (SJ-6 03B)","OBJECT_ID":"2008-053B","EPOCH":"2026-03-09T23:28:00.216192","MEAN_MOTION":15.03879314,"ECCENTRICITY":0.00200774,"INCLINATION":97.8673,"RA_OF_ASC_NODE":87.2117,"ARG_OF_PERICENTER":21.0315,"MEAN_ANOMALY":339.1731,"EPHEMERIS_TYPE":0,"CLASSIFICATION_TYPE":"U","NORAD_CAT_ID":33409,"ELEMENT_SET_NO":999,"REV_AT_EPOCH":94783,"BSTAR":0.00032650966,"MEAN_MOTION_DOT":4.452e-5,"MEAN_MOTION_DDOT":0},{"OBJECT_NAME":"STARLINK-3374","OBJECT_ID":"2022-005J","EPOCH":"2026-03-09T21:28:49.885248","MEAN_MOTION":15.08858562,"ECCENTRICITY":0.00013555,"INCLINATION":53.2171,"RA_OF_ASC_NODE":288.1695,"ARG_OF_PERICENTER":94.1755,"MEAN_ANOMALY":265.9393,"EPHEMERIS_TYPE":0,"CLASSIFICATION_TYPE":"U","NORAD_CAT_ID":51112,"ELEMENT_SET_NO":999,"REV_AT_EPOCH":22891,"BSTAR":0.00015547156,"MEAN_MOTION_DOT":2.188e-5,"MEAN_MOTION_DDOT":0}]
